[
    {
        "Altitude(m)": 554778.5672911729,
        "Argument of Periapsis(deg)": 0.006622991110713501,
        "Eccentricity": 0.0,
        "Inclination(deg)": 53.0,
        "Latitude(deg)": -3.650989740914938,
        "Longitude(deg)": -158.51386401803455,
        "Mean Anomaly(deg)": -4.453807132422514,
        "RAAN(deg)": 304.99014336852804,
        "Satellite Name": "Starlink Shell 1 1363",
        "Satellite Number": 1363,
        "Semi-Major Axis(m)": 6931778.249405717,
        "Time(s)": 190
    },
    {
        "Altitude(m)": 554694.5628212496,
        "Argument of Periapsis(deg)": 0.0069715695902247375,
        "Eccentricity": 0.0,
        "Inclination(deg)": 53.0,
        "Latitude(deg)": -3.1476360203575178,
        "Longitude(deg)": -158.1772248933249,
        "Mean Anomaly(deg)": -3.8269759288656657,
        "RAAN(deg)": 304.9896245984506,
        "Satellite Name": "Starlink Shell 1 1363",
        "Satellite Number": 1363,
        "Semi-Major Axis(m)": 6931778.249405717,
        "Time(s)": 200
    },
    {
        "Altitude(m)": 554613.2798961906,
        "Argument of Periapsis(deg)": 0.007320148069735974,
        "Eccentricity": 0.0,
        "Inclination(deg)": 53.0,
        "Latitude(deg)": -2.644129295776872,
        "Longitude(deg)": -157.84093985767595,
        "Mean Anomaly(deg)": -3.20014472530897,
        "RAAN(deg)": 304.98910582837306,
        "Satellite Name": "Starlink Shell 1 1363",
        "Satellite Number": 1363,
        "Semi-Major Axis(m)": 6931778.249405717,
        "Time(s)": 210
    },
    {
        "Altitude(m)": 554534.7342566146,
        "Argument of Periapsis(deg)": 0.007668726549247212,
        "Eccentricity": 0.0,
        "Inclination(deg)": 53.0,
        "Latitude(deg)": -2.140492631712408,
        "Longitude(deg)": -157.50495100300196,
        "Mean Anomaly(deg)": -2.5733135217523255,
        "RAAN(deg)": 304.9885870582956,
        "Satellite Name": "Starlink Shell 1 1363",
        "Satellite Number": 1363,
        "Semi-Major Axis(m)": 6931778.249405717,
        "Time(s)": 220
    },
    {
        "Altitude(m)": 554458.9403036907,
        "Argument of Periapsis(deg)": 0.00801730502875845,
        "Eccentricity": 0.0,
        "Inclination(deg)": 53.0,
        "Latitude(deg)": -1.6367490349713962,
        "Longitude(deg)": -157.1692005480304,
        "Mean Anomaly(deg)": -1.946482318195579,
        "RAAN(deg)": 304.98806828821813,
        "Satellite Name": "Starlink Shell 1 1363",
        "Satellite Number": 1363,
        "Semi-Major Axis(m)": 6931778.249405717,
        "Time(s)": 230
    },
    {
        "Altitude(m)": 554385.9110947378,
        "Argument of Periapsis(deg)": 0.008365883508269684,
        "Eccentricity": 0.0,
        "Inclination(deg)": 53.0,
        "Latitude(deg)": -1.132921466422302,
        "Longitude(deg)": -156.83363030872653,
        "Mean Anomaly(deg)": -1.3196511146388326,
        "RAAN(deg)": 304.98754951814067,
        "Satellite Name": "Starlink Shell 1 1363",
        "Satellite Number": 1363,
        "Semi-Major Axis(m)": 6931778.249405717,
        "Time(s)": 240
    },
    {
        "Altitude(m)": 554315.6583394503,
        "Argument of Periapsis(deg)": 0.008714461987780921,
        "Eccentricity": 0.0,
        "Inclination(deg)": 53.0,
        "Latitude(deg)": -0.629032852740077,
        "Longitude(deg)": -156.4981826816181,
        "Mean Anomaly(deg)": -0.6928199110821369,
        "RAAN(deg)": 304.98703074806315,
        "Satellite Name": "Starlink Shell 1 1363",
        "Satellite Number": 1363,
        "Semi-Major Axis(m)": 6931778.249405717,
        "Time(s)": 250
    },
    {
        "Altitude(m)": 554248.1923968047,
        "Argument of Periapsis(deg)": 0.009063040467292158,
        "Eccentricity": 0.0,
        "Inclination(deg)": 53.0,
        "Latitude(deg)": -0.12510609811959358,
        "Longitude(deg)": -156.16280011426605,
        "Mean Anomaly(deg)": -0.06598870752549219,
        "RAAN(deg)": 304.98651197798574,
        "Satellite Name": "Starlink Shell 1 1363",
        "Satellite Number": 1363,
        "Semi-Major Axis(m)": 6931778.249405717,
        "Time(s)": 260
    },
    {
        "Altitude(m)": 554183.5222726527,
        "Argument of Periapsis(deg)": 0.009411618946803396,
        "Eccentricity": 0.0,
        "Inclination(deg)": 53.0,
        "Latitude(deg)": 0.3788359040335549,
        "Longitude(deg)": -155.82742457574747,
        "Mean Anomaly(deg)": 0.5608424960312544,
        "RAAN(deg)": 304.9859932079083,
        "Satellite Name": "Starlink Shell 1 1363",
        "Satellite Number": 1363,
        "Semi-Major Axis(m)": 6931778.249405717,
        "Time(s)": 270
    },
    {
        "Altitude(m)": 554121.6556179877,
        "Argument of Periapsis(deg)": 0.009760197426314633,
        "Eccentricity": 0.0,
        "Inclination(deg)": 53.0,
        "Latitude(deg)": 0.8827702594262645,
        "Longitude(deg)": -155.4919985400156,
        "Mean Anomaly(deg)": 1.1876736995880517,
        "RAAN(deg)": 304.98547443783076,
        "Satellite Name": "Starlink Shell 1 1363",
        "Satellite Number": 1363,
        "Semi-Major Axis(m)": 6931778.249405717,
        "Time(s)": 280
    },
    {
        "Altitude(m)": 554062.5987278733,
        "Argument of Periapsis(deg)": 0.01010877590582587,
        "Eccentricity": 0.0,
        "Inclination(deg)": 53.0,
        "Latitude(deg)": 1.3866740611996082,
        "Longitude(deg)": -155.1564644563837,
        "Mean Anomaly(deg)": 1.8145049031446456,
        "RAAN(deg)": 304.9849556677533,
        "Satellite Name": "Starlink Shell 1 1363",
        "Satellite Number": 1363,
        "Semi-Major Axis(m)": 6931778.249405717,
        "Time(s)": 290
    },
    {
        "Altitude(m)": 554006.3565411005,
        "Argument of Periapsis(deg)": 0.010457354385337106,
        "Eccentricity": 0.0,
        "Inclination(deg)": 53.0,
        "Latitude(deg)": 1.890524378239755,
        "Longitude(deg)": -154.82076421999759,
        "Mean Anomaly(deg)": 2.4413361067013413,
        "RAAN(deg)": 304.98443689767583,
        "Satellite Name": "Starlink Shell 1 1363",
        "Satellite Number": 1363,
        "Semi-Major Axis(m)": 6931778.249405717,
        "Time(s)": 300
    },
    {
        "Altitude(m)": 553952.9326404372,
        "Argument of Periapsis(deg)": 0.010805932864848343,
        "Eccentricity": 0.0,
        "Inclination(deg)": 53.0,
        "Latitude(deg)": 2.394298243468844,
        "Longitude(deg)": -154.48484015516254,
        "Mean Anomaly(deg)": 3.0681673102581386,
        "RAAN(deg)": 304.9839181275984,
        "Satellite Name": "Starlink Shell 1 1363",
        "Satellite Number": 1363,
        "Semi-Major Axis(m)": 6931778.249405717,
        "Time(s)": 310
    },
    {
        "Altitude(m)": 553902.3292536549,
        "Argument of Periapsis(deg)": 0.01115451134435958,
        "Eccentricity": 0.0,
        "Inclination(deg)": 53.0,
        "Latitude(deg)": 2.8979726421002474,
        "Longitude(deg)": -154.1486344857712,
        "Mean Anomaly(deg)": 3.6949985138148342,
        "RAAN(deg)": 304.9833993575209,
        "Satellite Name": "Starlink Shell 1 1363",
        "Satellite Number": 1363,
        "Semi-Major Axis(m)": 6931778.249405717,
        "Time(s)": 320
    },
    {
        "Altitude(m)": 553854.5472551552,
        "Argument of Periapsis(deg)": 0.011503089823870818,
        "Eccentricity": 0.0,
        "Inclination(deg)": 53.0,
        "Latitude(deg)": 3.4015244998496117,
        "Longitude(deg)": -153.81208880569773,
        "Mean Anomaly(deg)": 4.321829717371529,
        "RAAN(deg)": 304.9828805874434,
        "Satellite Name": "Starlink Shell 1 1363",
        "Satellite Number": 1363,
        "Semi-Major Axis(m)": 6931778.249405717,
        "Time(s)": 330
    },
    {
        "Altitude(m)": 553809.5861683195,
        "Argument of Periapsis(deg)": 0.011851668303382053,
        "Eccentricity": 0.0,
        "Inclination(deg)": 53.0,
        "Latitude(deg)": 3.904930671092355,
        "Longitude(deg)": -153.47514506202347,
        "Mean Anomaly(deg)": 4.948660920928277,
        "RAAN(deg)": 304.9823618173659,
        "Satellite Name": "Starlink Shell 1 1363",
        "Satellite Number": 1363,
        "Semi-Major Axis(m)": 6931778.249405717,
        "Time(s)": 340
    },
    {
        "Altitude(m)": 553767.4441685106,
        "Argument of Periapsis(deg)": 0.012200246782893292,
        "Eccentricity": 0.0,
        "Inclination(deg)": 53.0,
        "Latitude(deg)": 4.408167926950905,
        "Longitude(deg)": -153.1377450253424,
        "Mean Anomaly(deg)": 5.575492124485023,
        "RAAN(deg)": 304.98184304728846,
        "Satellite Name": "Starlink Shell 1 1363",
        "Satellite Number": 1363,
        "Semi-Major Axis(m)": 6931778.249405717,
        "Time(s)": 350
    },
    {
        "Altitude(m)": 553728.1180867472,
        "Argument of Periapsis(deg)": 0.012548825262404526,
        "Eccentricity": 0.0,
        "Inclination(deg)": 53.0,
        "Latitude(deg)": 4.911212943304064,
        "Longitude(deg)": -152.79982976001165,
        "Mean Anomaly(deg)": 6.202323328041718,
        "RAAN(deg)": 304.981324277211,
        "Satellite Name": "Starlink Shell 1 1363",
        "Satellite Number": 1363,
        "Semi-Major Axis(m)": 6931778.249405717,
        "Time(s)": 360
    },
    {
        "Altitude(m)": 553691.6034140703,
        "Argument of Periapsis(deg)": 0.012897403741915765,
        "Eccentricity": 0.0,
        "Inclination(deg)": 53.0,
        "Latitude(deg)": 5.414042288708475,
        "Longitude(deg)": -152.46134060721346,
        "Mean Anomaly(deg)": 6.829154531598363,
        "RAAN(deg)": 304.9808055071335,
        "Satellite Name": "Starlink Shell 1 1363",
        "Satellite Number": 1363,
        "Semi-Major Axis(m)": 6931778.249405717,
        "Time(s)": 370
    }
]